ACS3                    
1 59588U 24077B   24152.78705474  .00000036  00000+0  76492-4 0  9991
2 59588  97.4064 224.7760 0021257 136.9954 223.2863 13.67682263  5161
